[{"OBJECT_NAME":"ONEWEB-0033","OBJECT_ID":"2020-008M","EPOCH":"2026-06-12T03:58:59.266272","MEAN_MOTION":13.10375386,"ECCENTRICITY":0.0001522,"INCLINATION":87.8835,"RA_OF_ASC_NODE":37.278,"ARG_OF_PERICENTER":96.1201,"MEAN_ANOMALY":264.0099,"EPHEMERIS_TYPE":0,"CLASSIFICATION_TYPE":"U","NORAD_CAT_ID":45142,"ELEMENT_SET_NO":999,"REV_AT_EPOCH":30755,"BSTAR":0.0012402000000000001,"MEAN_MOTION_DOT":4.46e-06,"MEAN_MOTION_DDOT":0.0},{"OBJECT_NAME":"ONEWEB-0035","OBJECT_ID":"2020-008N","EPOCH":"2026-06-12T04:27:53.129376","MEAN_MOTION":13.10371902,"ECCENTRICITY":0.0001736,"INCLINATION":87.8832,"RA_OF_ASC_NODE":37.2666,"ARG_OF_PERICENTER":85.0344,"MEAN_ANOMALY":275.0982,"EPHEMERIS_TYPE":0,"CLASSIFICATION_TYPE":"U","NORAD_CAT_ID":45143,"ELEMENT_SET_NO":999,"REV_AT_EPOCH":30728,"BSTAR":0.0015578,"MEAN_MOTION_DOT":5.56e-06,"MEAN_MOTION_DDOT":0.0},{"OBJECT_NAME":"ONEWEB-0036","OBJECT_ID":"2020-008P","EPOCH":"2026-06-12T03:49:53.963040","MEAN_MOTION":13.09985188,"ECCENTRICITY":0.0001985,"INCLINATION":87.8859,"RA_OF_ASC_NODE":37.2825,"ARG_OF_PERICENTER":77.5357,"MEAN_ANOMALY":282.5992,"EPHEMERIS_TYPE":0,"CLASSIFICATION_TYPE":"U","NORAD_CAT_ID":45144,"ELEMENT_SET_NO":999,"REV_AT_EPOCH":30770,"BSTAR":0.00021478,"MEAN_MOTION_DOT":8.7e-07,"MEAN_MOTION_DDOT":0.0},{"OBJECT_NAME":"ONEWEB-0038","OBJECT_ID":"2020-008Q","EPOCH":"2026-06-12T03:11:56.376096","MEAN_MOTION":13.11417513,"ECCENTRICITY":8.08e-05,"INCLINATION":87.8904,"RA_OF_ASC_NODE":22.0824,"ARG_OF_PERICENTER":15.8959,"MEAN_ANOMALY":344.2195,"EPHEMERIS_TYPE":0,"CLASSIFICATION_TYPE":"U","NORAD_CAT_ID":45145,"ELEMENT_SET_NO":999,"REV_AT_EPOCH":30966,"BSTAR":0.0016013,"MEAN_MOTION_DOT":5.8e-06,"MEAN_MOTION_DDOT":0.0},{"OBJECT_NAME":"ONEWEB-0039","OBJECT_ID":"2020-008R","EPOCH":"2026-06-12T04:03:46.432224","MEAN_MOTION":13.10372691,"ECCENTRICITY":0.0001965,"INCLINATION":87.883,"RA_OF_ASC_NODE":37.2675,"ARG_OF_PERICENTER":67.4369,"MEAN_ANOMALY":292.6966,"EPHEMERIS_TYPE":0,"CLASSIFICATION_TYPE":"U","NORAD_CAT_ID":45146,"ELEMENT_SET_NO":999,"REV_AT_EPOCH":30750,"BSTAR":0.0004944200000000001,"MEAN_MOTION_DOT":1.85e-06,"MEAN_MOTION_DDOT":0.0},{"OBJECT_NAME":"ONEWEB-0040","OBJECT_ID":"2020-008S","EPOCH":"2026-06-12T03:54:12.292992","MEAN_MOTION":13.10375739,"ECCENTRICITY":0.0001724,"INCLINATION":87.8839,"RA_OF_ASC_NODE":37.2798,"ARG_OF_PERICENTER":78.2336,"MEAN_ANOMALY":281.8985,"EPHEMERIS_TYPE":0,"CLASSIFICATION_TYPE":"U","NORAD_CAT_ID":45147,"ELEMENT_SET_NO":999,"REV_AT_EPOCH":30720,"BSTAR":0.0007331600000000001,"MEAN_MOTION_DOT":2.69e-06,"MEAN_MOTION_DDOT":0.0},{"OBJECT_NAME":"ONEWEB-0043","OBJECT_ID":"2020-008U","EPOCH":"2026-06-12T03:56:36.048768","MEAN_MOTION":13.10375742,"ECCENTRICITY":0.000215,"INCLINATION":87.8843,"RA_OF_ASC_NODE":37.2667,"ARG_OF_PERICENTER":67.9573,"MEAN_ANOMALY":292.1783,"EPHEMERIS_TYPE":0,"CLASSIFICATION_TYPE":"U","NORAD_CAT_ID":45149,"ELEMENT_SET_NO":999,"REV_AT_EPOCH":30752,"BSTAR":0.0010121,"MEAN_MOTION_DOT":3.66e-06,"MEAN_MOTION_DDOT":0.0},{"OBJECT_NAME":"ONEWEB-0044","OBJECT_ID":"2020-008V","EPOCH":"2026-06-12T04:37:13.816992","MEAN_MOTION":13.10369393,"ECCENTRICITY":0.000182,"INCLINATION":87.8842,"RA_OF_ASC_NODE":37.2612,"ARG_OF_PERICENTER":76.2058,"MEAN_ANOMALY":283.9272,"EPHEMERIS_TYPE":0,"CLASSIFICATION_TYPE":"U","NORAD_CAT_ID":45150,"ELEMENT_SET_NO":999,"REV_AT_EPOCH":30782,"BSTAR":0.00062648,"MEAN_MOTION_DOT":2.31e-06,"MEAN_MOTION_DDOT":0.0},{"OBJECT_NAME":"ONEWEB-0045","OBJECT_ID":"2020-008W","EPOCH":"2026-06-12T03:04:24.968064","MEAN_MOTION":13.11418715,"ECCENTRICITY":0.0001799,"INCLINATION":87.8899,"RA_OF_ASC_NODE":22.0663,"ARG_OF_PERICENTER":80.6208,"MEAN_ANOMALY":279.5123,"EPHEMERIS_TYPE":0,"CLASSIFICATION_TYPE":"U","NORAD_CAT_ID":45151,"ELEMENT_SET_NO":999,"REV_AT_EPOCH":30974,"BSTAR":0.0013143,"MEAN_MOTION_DOT":4.79e-06,"MEAN_MOTION_DDOT":0.0},{"OBJECT_NAME":"ONEWEB-0047","OBJECT_ID":"2020-008X","EPOCH":"2026-06-12T04:27:28.859616","MEAN_MOTION":13.10371536,"ECCENTRICITY":0.0001597,"INCLINATION":87.884,"RA_OF_ASC_NODE":37.2622,"ARG_OF_PERICENTER":83.1195,"MEAN_ANOMALY":277.0114,"EPHEMERIS_TYPE":0,"CLASSIFICATION_TYPE":"U","NORAD_CAT_ID":45152,"ELEMENT_SET_NO":999,"REV_AT_EPOCH":30754,"BSTAR":0.0015679000000000001,"MEAN_MOTION_DOT":5.6e-06,"MEAN_MOTION_DDOT":0.0},{"OBJECT_NAME":"ONEWEB-0048","OBJECT_ID":"2020-008Y","EPOCH":"2026-06-12T04:20:30.454656","MEAN_MOTION":13.10372293,"ECCENTRICITY":0.0001748,"INCLINATION":87.8834,"RA_OF_ASC_NODE":37.2847,"ARG_OF_PERICENTER":82.4042,"MEAN_ANOMALY":277.7284,"EPHEMERIS_TYPE":0,"CLASSIFICATION_TYPE":"U","NORAD_CAT_ID":45153,"ELEMENT_SET_NO":999,"REV_AT_EPOCH":30715,"BSTAR":0.0018891,"MEAN_MOTION_DOT":6.72e-06,"MEAN_MOTION_DDOT":0.0},{"OBJECT_NAME":"ONEWEB-0049","OBJECT_ID":"2020-008Z","EPOCH":"2026-06-12T04:25:05.731104","MEAN_MOTION":13.10371365,"ECCENTRICITY":0.0002225,"INCLINATION":87.8837,"RA_OF_ASC_NODE":37.2734,"ARG_OF_PERICENTER":83.3773,"MEAN_ANOMALY":276.7608,"EPHEMERIS_TYPE":0,"CLASSIFICATION_TYPE":"U","NORAD_CAT_ID":45154,"ELEMENT_SET_NO":999,"REV_AT_EPOCH":30737,"BSTAR":0.0017149,"MEAN_MOTION_DOT":6.11e-06,"MEAN_MOTION_DDOT":0.0},{"OBJECT_NAME":"ONEWEB-0051","OBJECT_ID":"2020-008AA","EPOCH":"2026-06-12T03:01:59.181888","MEAN_MOTION":13.11418759,"ECCENTRICITY":0.0001826,"INCLINATION":87.8891,"RA_OF_ASC_NODE":22.0747,"ARG_OF_PERICENTER":84.0351,"MEAN_ANOMALY":276.0985,"EPHEMERIS_TYPE":0,"CLASSIFICATION_TYPE":"U","NORAD_CAT_ID":45155,"ELEMENT_SET_NO":999,"REV_AT_EPOCH":31042,"BSTAR":0.0011983,"MEAN_MOTION_DOT":4.37e-06,"MEAN_MOTION_DDOT":0.0},{"OBJECT_NAME":"ONEWEB-0052","OBJECT_ID":"2020-008AB","EPOCH":"2026-06-12T04:54:08.914176","MEAN_MOTION":13.10370346,"ECCENTRICITY":0.0002245,"INCLINATION":87.8837,"RA_OF_ASC_NODE":37.2551,"ARG_OF_PERICENTER":82.3225,"MEAN_ANOMALY":277.8157,"EPHEMERIS_TYPE":0,"CLASSIFICATION_TYPE":"U","NORAD_CAT_ID":45156,"ELEMENT_SET_NO":999,"REV_AT_EPOCH":30728,"BSTAR":-0.00098574,"MEAN_MOTION_DOT":-3.31e-06,"MEAN_MOTION_DDOT":0.0},{"OBJECT_NAME":"ONEWEB-0053","OBJECT_ID":"2020-008AC","EPOCH":"2026-06-12T03:51:48.941568","MEAN_MOTION":13.1037609,"ECCENTRICITY":0.0002192,"INCLINATION":87.8837,"RA_OF_ASC_NODE":37.2857,"ARG_OF_PERICENTER":72.6688,"MEAN_ANOMALY":287.4679,"EPHEMERIS_TYPE":0,"CLASSIFICATION_TYPE":"U","NORAD_CAT_ID":45157,"ELEMENT_SET_NO":999,"REV_AT_EPOCH":30725,"BSTAR":0.00053843,"MEAN_MOTION_DOT":2.01e-06,"MEAN_MOTION_DDOT":0.0},{"OBJECT_NAME":"ONEWEB-0054","OBJECT_ID":"2020-008AD","EPOCH":"2026-06-12T04:42:00.348768","MEAN_MOTION":13.10368951,"ECCENTRICITY":0.0001866,"INCLINATION":87.8843,"RA_OF_ASC_NODE":37.2609,"ARG_OF_PERICENTER":83.2811,"MEAN_ANOMALY":276.8529,"EPHEMERIS_TYPE":0,"CLASSIFICATION_TYPE":"U","NORAD_CAT_ID":45158,"ELEMENT_SET_NO":999,"REV_AT_EPOCH":30737,"BSTAR":0.00011967,"MEAN_MOTION_DOT":5.4e-07,"MEAN_MOTION_DDOT":0.0}]