ONEWEB-0033             
1 45142U 20008M   26163.16596373  .00000446  00000+0  12402-2 0  9998
2 45142  87.8835  37.2780 0001522  96.1201 264.0099 13.10375386307550
ONEWEB-0035             
1 45143U 20008N   26163.18603159  .00000556  00000+0  15578-2 0  9991
2 45143  87.8832  37.2666 0001736  85.0344 275.0982 13.10371902307286
ONEWEB-0036             
1 45144U 20008P   26163.15965235  .00000087  00000+0  21478-3 0  9991
2 45144  87.8859  37.2825 0001985  77.5357 282.5992 13.09985188307705
ONEWEB-0038             
1 45145U 20008Q   26163.13329139  .00000580  00000+0  16013-2 0  9993
2 45145  87.8904  22.0824 0000808  15.8959 344.2195 13.11417513309667
ONEWEB-0039             
1 45146U 20008R   26163.16928741  .00000185  00000+0  49442-3 0  9995
2 45146  87.8830  37.2675 0001965  67.4369 292.6966 13.10372691307500
ONEWEB-0040             
1 45147U 20008S   26163.16264228  .00000269  00000+0  73316-3 0  9999
2 45147  87.8839  37.2798 0001724  78.2336 281.8985 13.10375739307207
ONEWEB-0043             
1 45149U 20008U   26163.16430612  .00000366  00000+0  10121-2 0  9995
2 45149  87.8843  37.2667 0002150  67.9573 292.1783 13.10375742307521
ONEWEB-0044             
1 45150U 20008V   26163.19252103  .00000231  00000+0  62648-3 0  9990
2 45150  87.8842  37.2612 0001820  76.2058 283.9272 13.10369393307825
ONEWEB-0045             
1 45151U 20008W   26163.12806676  .00000479  00000+0  13143-2 0  9993
2 45151  87.8899  22.0663 0001799  80.6208 279.5123 13.11418715309740
ONEWEB-0047             
1 45152U 20008X   26163.18575069  .00000560  00000+0  15679-2 0  9996
2 45152  87.8840  37.2622 0001597  83.1195 277.0114 13.10371536307546
ONEWEB-0048             
1 45153U 20008Y   26163.18090804  .00000672  00000+0  18891-2 0  9999
2 45153  87.8834  37.2847 0001748  82.4042 277.7284 13.10372293307153
ONEWEB-0049             
1 45154U 20008Z   26163.18409411  .00000611  00000+0  17149-2 0  9996
2 45154  87.8837  37.2734 0002225  83.3773 276.7608 13.10371365307376
ONEWEB-0051             
1 45155U 20008AA  26163.12637942  .00000437  00000+0  11983-2 0  9999
2 45155  87.8891  22.0747 0001826  84.0351 276.0985 13.11418759310420
ONEWEB-0052             
1 45156U 20008AB  26163.20426984 -.00000331  00000+0 -98574-3 0  9998
2 45156  87.8837  37.2551 0002245  82.3225 277.8157 13.10370346307287
ONEWEB-0053             
1 45157U 20008AC  26163.16098312  .00000201  00000+0  53843-3 0  9998
2 45157  87.8837  37.2857 0002192  72.6688 287.4679 13.10376090307258
ONEWEB-0054             
1 45158U 20008AD  26163.19583737  .00000054  00000+0  11967-3 0  9999
2 45158  87.8843  37.2609 0001866  83.2811 276.8529 13.10368951307370
